{"type": "FeatureCollection", "features": [ {"type": "Feature", "properties": {"norad_id": 66697, "name": "IRIDE FM3", "group": "last-30-days", "lat": 31.356975535169372, "lon": 64.51058798561276, "alt_km": 510.1018434357902, "timestamp": "2025-12-23T11:34:46.945924+00:00", "meta": {"OBJECT_NAME": "IRIDE FM3", "OBJECT_ID": "2025-276AH", "EPOCH": "2025-12-23T00:22:03.736992", "MEAN_MOTION": 15.18166875, "ECCENTRICITY": 0.0001185, "INCLINATION": 97.4391, "RA_OF_ASC_NODE": 68.6181, "ARG_OF_PERICENTER": 154.5827, "MEAN_ANOMALY": 205.5466, "EPHEMERIS_TYPE": 0, "CLASSIFICATION_TYPE": "U", "NORAD_CAT_ID": 66697, "ELEMENT_SET_NO": 999, "REV_AT_EPOCH": 368, "BSTAR": 0.00058939, "MEAN_MOTION_DOT": 0.00011985, "MEAN_MOTION_DDOT": 0}, "tle": {"line1": "1 66697U 25276AH  25357.01532103  .00011985  00000+0  58939-3 0  9993", "line2": "2 66697  97.4391  68.6181 0001185 154.5827 205.5466 15.18166875  3689"}}, "geometry": {"type": "Point", "coordinates": [64.51058798561276, 31.356975535169372]}}, {"type": "Feature", "properties": {"norad_id": 66698, "name": "IRIDE FM4", "group": "last-30-days", "lat": -43.700655196122526, "lon": 76.219300676033, "alt_km": 526.210048483289, "timestamp": "2025-12-23T11:34:46.945933+00:00", "meta": {"OBJECT_NAME": "IRIDE FM4", "OBJECT_ID": "2025-276AJ", "EPOCH": "2025-12-22T15:11:00.371616", "MEAN_MOTION": 15.16542107, "ECCENTRICITY": 0.00031447, "INCLINATION": 97.4393, "RA_OF_ASC_NODE": 68.213, "ARG_OF_PERICENTER": 198.1981, "MEAN_ANOMALY": 161.914, "EPHEMERIS_TYPE": 0, "CLASSIFICATION_TYPE": "U", "NORAD_CAT_ID": 66698, "ELEMENT_SET_NO": 999, "REV_AT_EPOCH": 362, "BSTAR": -0.020508134, "MEAN_MOTION_DOT": -0.00379692, "MEAN_MOTION_DDOT": 0}, "tle": {"line1": "1 66698U 25276AJ  25356.63264319 -.00379692  00000+0 -20508-1 0  9995", "line2": "2 66698  97.4393  68.2130 0003144 198.1981 161.9140 15.16542107  3626"}}, "geometry": {"type": "Point", "coordinates": [76.219300676033, -43.700655196122526]}}, {"type": "Feature", "properties": {"norad_id": 66699, "name": "IRIDE FM5", "group": "last-30-days", "lat": -37.92594420448132, "lon": 74.896986601335, "alt_km": 519.3736605677204, "timestamp": "2025-12-23T11:34:46.945944+00:00", "meta": {"OBJECT_NAME": "IRIDE FM5", "OBJECT_ID": "2025-276AK", "EPOCH": "2025-12-23T03:50:05.855136", "MEAN_MOTION": 15.17414141, "ECCENTRICITY": 0.0003087, "INCLINATION": 97.4403, "RA_OF_ASC_NODE": 68.7355, "ARG_OF_PERICENTER": 254.1945, "MEAN_ANOMALY": 105.8948, "EPHEMERIS_TYPE": 0, "CLASSIFICATION_TYPE": "U", "NORAD_CAT_ID": 66699, "ELEMENT_SET_NO": 999, "REV_AT_EPOCH": 370, "BSTAR": -0.00016185, "MEAN_MOTION_DOT": -3.298e-05, "MEAN_MOTION_DDOT": 0}, "tle": {"line1": "1 66699U 25276AK  25357.15978999 -.00003298  00000+0 -16185-3 0  9994", "line2": "2 66699  97.4403  68.7355 0003087 254.1945 105.8948 15.17414141  3701"}}, "geometry": {"type": "Point", "coordinates": [74.896986601335, -37.92594420448132]}}, {"type": "Feature", "properties": {"norad_id": 66700, "name": "IRIDE FM6", "group": "last-30-days", "lat": 34.86356279837515, "lon": 63.86436677188765, "alt_km": 509.56691138517454, "timestamp": "2025-12-23T11:34:46.945955+00:00", "meta": {"OBJECT_NAME": "IRIDE FM6", "OBJECT_ID": "2025-276AL", "EPOCH": "2025-12-23T00:21:09.045792", "MEAN_MOTION": 15.18221082, "ECCENTRICITY": 0.000159, "INCLINATION": 97.4423, "RA_OF_ASC_NODE": 68.6292, "ARG_OF_PERICENTER": 160.9977, "MEAN_ANOMALY": 199.1316, "EPHEMERIS_TYPE": 0, "CLASSIFICATION_TYPE": "U", "NORAD_CAT_ID": 66700, "ELEMENT_SET_NO": 999, "REV_AT_EPOCH": 368, "BSTAR": 0.00058061, "MEAN_MOTION_DOT": 0.00011823, "MEAN_MOTION_DDOT": 0}, "tle": {"line1": "1 66700U 25276AL  25357.01468803  .00011823  00000+0  58061-3 0  9990", "line2": "2 66700  97.4423  68.6292 0001590 160.9977 199.1316 15.18221082  3684"}}, "geometry": {"type": "Point", "coordinates": [63.86436677188765, 34.86356279837515]}}, {"type": "Feature", "properties": {"norad_id": 66701, "name": "IRIDE FM7", "group": "last-30-days", "lat": -38.048716751099086, "lon": 74.93015619050522, "alt_km": 519.3919769669619, "timestamp": "2025-12-23T11:34:46.945963+00:00", "meta": {"OBJECT_NAME": "IRIDE FM7", "OBJECT_ID": "2025-276AM", "EPOCH": "2025-12-23T03:50:07.437984", "MEAN_MOTION": 15.17387909, "ECCENTRICITY": 0.0003069, "INCLINATION": 97.442, "RA_OF_ASC_NODE": 68.7413, "ARG_OF_PERICENTER": 255.2211, "MEAN_ANOMALY": 104.8683, "EPHEMERIS_TYPE": 0, "CLASSIFICATION_TYPE": "U", "NORAD_CAT_ID": 66701, "ELEMENT_SET_NO": 999, "REV_AT_EPOCH": 370, "BSTAR": 0.00063107, "MEAN_MOTION_DOT": 0.00012555, "MEAN_MOTION_DDOT": 0}, "tle": {"line1": "1 66701U 25276AM  25357.15980831  .00012555  00000+0  63107-3 0  9996", "line2": "2 66701  97.4420  68.7413 0003069 255.2211 104.8683 15.17387909  3703"}}, "geometry": {"type": "Point", "coordinates": [74.93015619050522, -38.048716751099086]}}, {"type": "Feature", "properties": {"norad_id": 66702, "name": "IRIDE FM8", "group": "last-30-days", "lat": -37.09334006539667, "lon": 74.72122407239294, "alt_km": 519.1728350126805, "timestamp": "2025-12-23T11:34:46.945972+00:00", "meta": {"OBJECT_NAME": "IRIDE FM8", "OBJECT_ID": "2025-276AN", "EPOCH": "2025-12-23T03:49:52.128768", "MEAN_MOTION": 15.17392797, "ECCENTRICITY": 0.0002899, "INCLINATION": 97.4398, "RA_OF_ASC_NODE": 68.7338, "ARG_OF_PERICENTER": 262.7183, "MEAN_ANOMALY": 97.3721, "EPHEMERIS_TYPE": 0, "CLASSIFICATION_TYPE": "U", "NORAD_CAT_ID": 66702, "ELEMENT_SET_NO": 999, "REV_AT_EPOCH": 370, "BSTAR": 0.00054905, "MEAN_MOTION_DOT": 0.00010914, "MEAN_MOTION_DDOT": 0}, "tle": {"line1": "1 66702U 25276AN  25357.15963112  .00010914  00000+0  54905-3 0  9993", "line2": "2 66702  97.4398  68.7338 0002899 262.7183  97.3721 15.17392797  3705"}}, "geometry": {"type": "Point", "coordinates": [74.72122407239294, -37.09334006539667]}}, {"type": "Feature", "properties": {"norad_id": 66703, "name": "PELICAN-6", "group": "last-30-days", "lat": -30.290414891886144, "lon": 73.43387579562052, "alt_km": 519.8853234028766, "timestamp": "2025-12-23T11:34:46.945981+00:00", "meta": {"OBJECT_NAME": "PELICAN-6", "OBJECT_ID": "2025-276AP", "EPOCH": "2025-12-23T03:48:02.112192", "MEAN_MOTION": 15.17340658, "ECCENTRICITY": 9.6e-05, "INCLINATION": 97.4407, "RA_OF_ASC_NODE": 68.7373, "ARG_OF_PERICENTER": 243.0944, "MEAN_ANOMALY": 117.0191, "EPHEMERIS_TYPE": 0, "CLASSIFICATION_TYPE": "U", "NORAD_CAT_ID": 66703, "ELEMENT_SET_NO": 999, "REV_AT_EPOCH": 370, "BSTAR": 0.00043501, "MEAN_MOTION_DOT": 8.617e-05, "MEAN_MOTION_DDOT": 0}, "tle": {"line1": "1 66703U 25276AP  25357.15835778  .00008617  00000+0  43501-3 0  9997", "line2": "2 66703  97.4407  68.7373 0000960 243.0944 117.0191 15.17340658  3700"}}, "geometry": {"type": "Point", "coordinates": [73.43387579562052, -30.290414891886144]}}, {"type": "Feature", "properties": {"norad_id": 66704, "name": "FLOCK 4H-1", "group": "last-30-days", "lat": 26.726120785983046, "lon": 65.29900639240645, "alt_km": 511.71199477527625, "timestamp": "2025-12-23T11:34:46.945991+00:00", "meta": {"OBJECT_NAME": "FLOCK 4H-1", "OBJECT_ID": "2025-276AQ", "EPOCH": "2025-12-23T01:58:10.428096", "MEAN_MOTION": 15.18084692, "ECCENTRICITY": 0.0001902, "INCLINATION": 97.4384, "RA_OF_ASC_NODE": 68.6773, "ARG_OF_PERICENTER": 170.0433, "MEAN_ANOMALY": 190.0839, "EPHEMERIS_TYPE": 0, "CLASSIFICATION_TYPE": "U", "NORAD_CAT_ID": 66704, "ELEMENT_SET_NO": 999, "REV_AT_EPOCH": 369, "BSTAR": 0.00046085, "MEAN_MOTION_DOT": 9.331e-05, "MEAN_MOTION_DDOT": 0}, "tle": {"line1": "1 66704U 25276AQ  25357.08206514  .00009331  00000+0  46085-3 0  9994", "line2": "2 66704  97.4384  68.6773 0001902 170.0433 190.0839 15.18084692  3699"}}, "geometry": {"type": "Point", "coordinates": [65.29900639240645, 26.726120785983046]}}, {"type": "Feature", "properties": {"norad_id": 66705, "name": "FLOCK 4H-2", "group": "last-30-days", "lat": 29.36285180361821, "lon": 64.85703957823038, "alt_km": 510.6218333134584, "timestamp": "2025-12-23T11:34:46.946000+00:00", "meta": {"OBJECT_NAME": "FLOCK 4H-2", "OBJECT_ID": "2025-276AR", "EPOCH": "2025-12-23T00:22:34.815072", "MEAN_MOTION": 15.18137685, "ECCENTRICITY": 0.0001241, "INCLINATION": 97.4378, "RA_OF_ASC_NODE": 68.6132, "ARG_OF_PERICENTER": 159.7992, "MEAN_ANOMALY": 200.3291, "EPHEMERIS_TYPE": 0, "CLASSIFICATION_TYPE": "U", "NORAD_CAT_ID": 66705, "ELEMENT_SET_NO": 999, "REV_AT_EPOCH": 368, "BSTAR": 0.00056217, "MEAN_MOTION_DOT": 0.00011418, "MEAN_MOTION_DDOT": 0}, "tle": {"line1": "1 66705U 25276AR  25357.01568073  .00011418  00000+0  56217-3 0  9996", "line2": "2 66705  97.4378  68.6132 0001241 159.7992 200.3291 15.18137685  3689"}}, "geometry": {"type": "Point", "coordinates": [64.85703957823038, 29.36285180361821]}}, {"type": "Feature", "properties": {"norad_id": 66706, "name": "FLOCK 4H-3", "group": "last-30-days", "lat": -26.09364601167434, "lon": 72.74348577226341, "alt_km": 519.20655554314, "timestamp": "2025-12-23T11:34:46.946009+00:00", "meta": {"OBJECT_NAME": "FLOCK 4H-3", "OBJECT_ID": "2025-276AS", "EPOCH": "2025-12-22T15:07:18.982848", "MEAN_MOTION": 15.17470325, "ECCENTRICITY": 0.00028783, "INCLINATION": 97.4446, "RA_OF_ASC_NODE": 68.2339, "ARG_OF_PERICENTER": 247.121, "MEAN_ANOMALY": 112.972, "EPHEMERIS_TYPE": 0, "CLASSIFICATION_TYPE": "U", "NORAD_CAT_ID": 66706, "ELEMENT_SET_NO": 999, "REV_AT_EPOCH": 362, "BSTAR": 0.00027722156, "MEAN_MOTION_DOT": 5.486e-05, "MEAN_MOTION_DDOT": 0}, "tle": {"line1": "1 66706U 25276AS  25356.63008082  .00005486  00000+0  27722-3 0  9990", "line2": "2 66706  97.4446  68.2339 0002878 247.1210 112.9720 15.17470325  3622"}}, "geometry": {"type": "Point", "coordinates": [72.74348577226341, -26.09364601167434]}}]}